MICROMAS-2A             
1 43131U 18004W   19061.72826235  .00001941  00000-0  83846-4 0  9995
2 43131  97.5016 129.8470 0007911 272.2701  87.7630 15.23693625 63071
CICERO 7                
1 43143U 18004AJ  19061.43547038  .00001539  00000-0  66729-4 0  9991
2 43143  97.5007 129.7574 0006052 286.0875  73.9695 15.23906869 63040
GOMX-4B                 
1 43196U 18015E   19061.42425474  .00000278  00000-0  14474-4 0  9998
2 43196  97.3745 190.6219 0018661 332.6644  27.3611 15.23818898 59858
GOMX-4A                 
1 43197U 18015F   19062.40603642  .00000423  00000-0  20398-4 0  9997
2 43197  97.3739 191.6021 0018084 330.5844  76.2111 15.23917984 60016
1KUNS-PF                
1 43466U 98067NP  19062.52036463  .00020871  00000-0  23789-3 0  9990
2 43466  51.6384 156.8258 0001130  22.7735 337.3309 15.62202376 46145
UBAKUSAT                
1 43467U 98067NQ  19062.53980202  .00014067  00000-0  17489-3 0  9991
2 43467  51.6381 158.4501 0002921  23.5957 336.5170 15.60257931 46137
BATSU-CS1 (IRAZU)       
1 43468U 98067NR  19061.69730987  .00026530  00000-0  28392-3 0  9994
2 43468  51.6377 159.5731 0001161   9.5324 350.5692 15.63669182146029
CUBERRT                 
1 43546U 98067NU  19061.55536011  .00020446  00000-0  24789-3 0  9994
2 43546  51.6379 165.3667 0005563  81.3151 278.8472 15.60595571 36086
TEMPEST-D               
1 43547U 98067NV  19062.17720925  .00004327  00000-0  66208-4 0  9996
2 43547  51.6384 165.0158 0006243  82.0694 278.1006 15.56711008 35828
RAINCUBE                
1 43548U 98067NW  19061.53911963  .00014710  00000-0  19290-3 0  9995
2 43548  51.6373 166.7537 0005764  85.8227 274.3424 15.58789625 36191
HALOSAT                 
1 43549U 98067NX  19061.53971627  .00015782  00000-0  20677-3 0  9990
2 43549  51.6375 166.7609 0005687  89.7712 270.3932 15.58748563 35757
ENDUROSAT ONE           
1 43551U 98067NZ  19061.71141245  .00017358  00000-0  21850-3 0  9993
2 43551  51.6386 164.9096 0005923  95.7773 264.3895 15.59729865 36206
EQUISAT                 
1 43552U 98067PA  19061.75465285  .00014994  00000-0  19449-3 0  9995
2 43552  51.6391 165.2045 0006329  96.1816 263.9898 15.59059691 36161
AEROCUBE 12A            
1 43556U 18046C   19061.64472097  .00001570  00000-0  68780-4 0  9994
2 43556  51.6413 214.8033 0008793  47.9596 312.2131 15.28343113 35038
AEROCUBE 12B            
1 43557U 18046D   19061.71604481  .00000978  00000-0  47779-4 0  9993
2 43557  51.6416 214.5277 0008889  48.0490 312.1246 15.28260631 34993
UITMSAT-1               
1 43589U 98067PD  19062.52422388  .00015366  00000-0  20037-3 0  9997
2 43589  51.6369 162.0746 0005503 106.5457 253.6141 15.58899646 32017
MAYA-1                  
1 43590U 98067PE  19062.45667993  .00015968  00000-0  20777-3 0  9993
2 43590  51.6371 162.3752 0005595 107.3754 252.7850 15.58922812 31931
BHUTAN-1                
1 43591U 98067PF  19061.55359280  .00017179  00000-0  22282-3 0  9990
2 43591  51.6380 166.8501 0005819 104.9909 255.1729 15.58944315 31795
SIRIUSSAT-1             
1 43595U 98067PG  19061.55503694  .00015434  00000-0  20568-3 0  9991
2 43595  51.6370 167.6019 0003807  58.4329 301.7034 15.58321789 30964
SIRIUSSAT-2             
1 43596U 98067PH  19061.83076030  .00014892  00000-0  19981-3 0  9996
2 43596  51.6381 166.4641 0004410  61.0447 299.0987 15.58170947 31007
TANUSHA-3               
1 43597U 98067PJ  19061.84526261  .00018348  00000-0  23713-3 0  9992
2 43597  51.6365 165.7710 0003698  71.6312 288.5082 15.58994369 31016
SURFSAT                 
1 43614U 18070B   19061.73437587  .00003105  00000-0  85671-4 0  9995
2 43614  93.0376 319.0860 0016879  12.2563 347.9097 15.37014901 25822
CP7 (DAVE)              
1 43615U 18070C   19062.45195886  .00002843  00000-0  78590-4 0  9999
2 43615  93.0379 319.3839 0016732   9.3670 350.7892 15.36974742 25933
ELFIN-B                 
1 43616U 18070D   19062.49477885  .00004414  00000-0  12030-3 0  9998
2 43616  93.0340 319.3379 0017857  11.9103 348.2569 15.37357341 25945
ELFIN-A                 
1 43617U 18070E   19061.77503861  .00004511  00000-0  12289-3 0  9997
2 43617  93.0395 319.1715 0016882  11.9520 348.2130 15.37387364 25838
DEBRISSAT-1             
1 43621U 98067PM  19061.23898920  .23242489  12305-4  32983-2 0  9990
2 43621  51.6125 153.4152 0004233 358.3622   3.0151 16.34053878 26115
CUBEBEL-1 (BSUSAT-1)    
1 43666U 18083E   19062.47319573  .00001139  00000-0  60421-4 0  9993
2 43666  97.5307  87.6399 0014736 194.7554 297.8667 15.17335314 19026
DEBRISSAT-2             
1 43680U 98067PR  19062.55596354  .00020210  00000-0  26070-3 0  9994
2 43680  51.6399 162.2865 0003452  94.6205 265.5185 15.58973933 39867
CICERO 10               
1 43690U 18088A   19061.43021104  .00001209  00000-0  55173-4 0  9996
2 43690  85.0387  29.7567 0013116 240.8833 119.1095 15.19429500 16897
IRVINE01                
1 43693U 18088D   19061.86023830  .00002998  00000-0  13352-3 0  9992
2 43693  85.0363  29.2890 0016784 224.2224 135.7677 15.20884157 16976
PROXIMA I               
1 43694U 18088E   19061.69706383  .00001066  00000-0  45878-4 0  9999
2 43694  85.0332  29.2939 0018041 215.7578 144.2456 15.21176356 16956
PROXIMA II              
1 43696U 18088G   19061.69660590  .00001044  00000-0  44878-4 0  9995
2 43696  85.0333  29.2947 0018075 215.7348 144.2685 15.21182217 16957
FACSAT-1                
1 43721U 18096C   19062.46634918  .00001502  00000-0  61188-4 0  9996
2 43721  97.4716 132.4678 0017898 353.1202   6.9788 15.25946441 14388
CENTAURI-2              
1 43722U 18096D   19062.52541491  .00002121  00000-0  84853-4 0  9999
2 43722  97.4716 132.5426 0017954 353.7595   6.3417 15.26089075 14380
CORVUS-BC 4             
1 43767U 18099K   19061.79929861  .00000271  00000-0  30355-4 0  9992
2 43767  97.7547 134.9589 0010917 329.4830  30.5753 14.94519681 13302
SHIELDS 1               
1 43850U 18104B   19061.62105655  .00000041  00000-0  00000+0 0  9995
2 43850  85.0304 127.8817 0015090  16.8322 343.3416 15.20976459 11591
STF-1                   
1 43852U 18104D   19061.65382893  .00000041  00000-0  00000+0 0  9991
2 43852  85.0336 127.9616 0015984  30.7736 329.4508 15.20363847 11590
LUME 1                  
1 43908U 18111AJ  19062.52835122  .00001264  00000-0  54622-4 0  9998
2 43908  97.2977 330.6678 0022292  14.0828 346.1027 15.24086577 10122
AOBA VELOX-IV           
1 43940U 19003J   19062.43790138  .00001892  00000-0  81706-4 0  9992
2 43940  97.2912 123.4745 0026910  90.7373  30.1868 15.23385666  6754
CATSAT-2                
1 44029U 98067PV  19061.73574315  .00012150  00000-0  18930-3 0  9994
2 44029  51.6390 170.3170 0005197 104.2138 255.9431 15.54296491  4778
DELPHINI                
1 44030U 98067PW  19061.60687124  .00012496  00000-0  19431-3 0  9995
2 44030  51.6390 170.9558 0004789 100.7023 259.4507 15.54321345  4721
UNITE                   
1 44031U 98067PX  19061.73612350  .00008247  00000-0  13135-3 0  9993
2 44031  51.6390 170.3188 0003582  97.8650 262.2748 15.54197475  4743
TECHEDSAT 8             
1 44032U 98067PY  19061.60046853  .00023607  00000-0  35255-3 0  9993
2 44032  51.6386 170.9139 0003289  91.1729 268.9639 15.54912634  4709
CATSAT-1                
1 44033U 98067PZ  19061.60690553  .00011228  00000-0  17566-3 0  9997
2 44033  51.6393 170.9569 0005111 102.9676 257.1885 15.54271435  4668
